[{"OBJECT_NAME":"STARLINK-34426","OBJECT_ID":"2025-126B","EPOCH":"2026-03-09T22:52:14.441952","MEAN_MOTION":14.98335264,"ECCENTRICITY":0.00026432,"INCLINATION":70.0025,"RA_OF_ASC_NODE":33.6984,"ARG_OF_PERICENTER":264.5117,"MEAN_ANOMALY":95.5741,"EPHEMERIS_TYPE":0,"CLASSIFICATION_TYPE":"U","NORAD_CAT_ID":64345,"ELEMENT_SET_NO":999,"REV_AT_EPOCH":4072,"BSTAR":0.00033612292,"MEAN_MOTION_DOT":3.92e-5,"MEAN_MOTION_DDOT":0},{"OBJECT_NAME":"NOAA 16 DEB","OBJECT_ID":"2000-055PP","EPOCH":"2026-03-07T09:37:02.399808","MEAN_MOTION":14.94870962,"ECCENTRICITY":0.00127779,"INCLINATION":98.9453,"RA_OF_ASC_NODE":285.7448,"ARG_OF_PERICENTER":347.412,"MEAN_ANOMALY":12.6776,"EPHEMERIS_TYPE":0,"CLASSIFICATION_TYPE":"U","NORAD_CAT_ID":41709,"ELEMENT_SET_NO":999,"REV_AT_EPOCH":51965,"BSTAR":0.009194972,"MEAN_MOTION_DOT":0.00101727,"MEAN_MOTION_DDOT":0}]
